STARLINK-3727           
1 52125U 22029AP  23304.36379818 -.00001043  00000+0 -47439-4 0  9997
2 52125  53.2176 331.2746 0001738  82.9414 277.1776 15.08839277 91056
STARLINK-3732           
1 52126U 22029AQ  23304.37116191  .00013569  00000+0  86908-3 0  9999
2 52126  53.2172 331.2438 0001603  91.8447 268.2729 15.08836928 91045
STARLINK-3715           
1 52127U 22029AR  23304.36011733 -.00000457  00000+0 -10643-4 0  9993
2 52127  53.2163 331.2930 0001689  94.3311 265.7875 15.08837909 91049
STARLINK-3661           
1 52129U 22029AT  23304.35276105  .00002809  00000+0  19452-3 0  9997
2 52129  53.2162 331.3234 0001776  93.0583 267.0612 15.08837955 91058
STARLINK-3711           
1 52131U 22029AV  23304.48155908 -.00001792  00000+0 -94532-4 0  9996
2 52131  53.2169 330.7466 0001665  85.2942 274.8240 15.08842520 91076
STARLINK-3718           
1 52132U 22029AW  23304.48892101  .00004117  00000+0  27662-3 0  9991
2 52132  53.2166 330.7135 0001710  89.5404 270.5784 15.08836736 91076
STARLINK-3707           
1 52133U 22029AX  23304.34172224  .00000284  00000+0  35964-4 0  9990
2 52133  53.2159 331.3762 0001791  85.4738 274.6459 15.08834268 91056
STARLINK-3721           
1 52134U 22029AY  23304.47788270  .00006254  00000+0  41069-3 0  9994
2 52134  53.2165 330.7642 0001692  92.2905 267.8281 15.08836760 91074
STARLINK-3729           
1 52135U 22029AZ  23304.46411905  .00007527  00000+0  49047-3 0  9990
2 52135  53.2174 330.8357 0001758  90.0532 270.0662 15.08841529 91072
STARLINK-3720           
1 52136U 22029BA  23304.40427925 -.00000899  00000+0 -38386-4 0  9996
2 52136  53.2171 331.0942 0001504  98.5974 261.5189 15.08837524 91063
STARLINK-3733           
1 52137U 22029BB  23304.45948093  .00007021  00000+0  45882-3 0  9996
2 52137  53.2162 330.8441 0001628  79.9911 280.1264 15.08838969 91072
STARLINK-3723           
1 52138U 22029BC  23304.40060137  .00010193  00000+0  65759-3 0  9995
2 52138  53.2161 331.1128 0001787  77.9976 282.1216 15.08840188 91067
STARLINK-3730           
1 52139U 22029BD  23304.38127971  .00001666  00000+0  12277-3 0  9995
2 52139  53.2179 341.1980 0001372  92.1232 267.9917 15.08836730 90918
STARLINK-3682           
1 52140U 22029BE  23304.45579924  .00000765  00000+0  66191-4 0  9998
2 52140  53.2167 330.8629 0001617  91.6520 268.4657 15.08836789 91077
STARLINK-3810           
1 52261U 22041A   23304.58556871  .00008015  00000+0  52132-3 0  9991
2 52261  53.2172  10.2878 0001458  92.1116 268.0043 15.08823256 84513
STARLINK-3761           
1 52262U 22041B   23304.45211877  .00008089  00000+0  52590-3 0  9991
2 52262  53.2163  10.8255 0001514  90.8781 269.2385 15.08830041 84494
STARLINK-3786           
1 52263U 22041C   23304.58828388  .00013052  00000+0  83663-3 0  9998
2 52263  53.2182  10.2649 0001618  90.6321 269.4856 15.08839559 84511
STARLINK-3795           
1 52264U 22041D   23304.51467235 -.00001394  00000+0 -69467-4 0  9997
2 52264  53.2180  10.5990 0001436  91.2374 268.8782 15.08851522 84509
STARLINK-3740           
1 52265U 22041E   23304.51100188  .00005899  00000+0  38851-3 0  9993
2 52265  53.2173  10.6142 0001535  85.7319 274.3848 15.08831877 84505
STARLINK-3739           
1 52266U 22041F   23304.57356347  .00019747  00000+0  12554-2 0  9998
2 52266  53.2170  10.3345 0001570  79.7200 280.3969 15.08837875 84512
STARLINK-3748           
1 52267U 22041G   23304.50363937  .00010361  00000+0  66812-3 0  9995
2 52267  53.2174  10.6505 0001562  91.0031 269.1140 15.08841077 84502
STARLINK-3746           
1 52268U 22041H   23304.41899232  .00006528  00000+0  42796-3 0  9993
2 52268  53.2182  10.9521 0001669  86.5478 273.5705 15.08830529 84499
STARLINK-3791           
1 52269U 22041J   23304.56619364  .00010775  00000+0  69388-3 0  9991
2 52269  53.2169  10.3654 0001420  72.1561 287.9585 15.08848670 84519
STARLINK-3804           
1 52270U 22041K   23304.42636438  .00019088  00000+0  12144-2 0  9992
2 52270  53.2182  11.0258 0001515  89.3013 270.8152 15.08833137 84491
STARLINK-3788           
1 52271U 22041L   23304.56250916 -.00003060  00000+0 -17415-3 0  9993
2 52271  53.2186  10.3853 0001713  99.4765 260.6420 15.08853846 84512
STARLINK-3781           
1 52272U 22041M   23304.42364102  .00004049  00000+0  27245-3 0  9990
2 52272  53.2194  11.0476 0001755 113.6918 246.4258 15.08827108 84496
STARLINK-3782           
1 52273U 22041N   23304.59327726  .00096968  00000+0  62730-2 0  9998
2 52273  53.2185   0.6232 0001685  88.3961 271.7224 15.07374799 84653
STARLINK-3790           
1 52274U 22041P   23304.48156046  .00008634  00000+0  56000-3 0  9999
2 52274  53.2182  10.7454 0001485  92.1747 267.9415 15.08834663 84507
STARLINK-3784           
1 52275U 22041Q   23304.42268045  .00007945  00000+0  51678-3 0  9997
2 52275  53.2186  11.0142 0001650  91.1523 268.9658 15.08833070 84494
STARLINK-3778           
1 52276U 22041R   23304.41163853 -.00000408  00000+0 -75234-5 0  9993
2 52276  53.2186  11.0596 0001637 101.4359 258.6817 15.08833182 84492
STARLINK-3787           
1 52277U 22041S   23304.38424745  .00149923  00000+0  32445-2 0  9998
2 52277  53.2212 345.7274 0009133  29.8611 330.2916 15.43414749 84856
STARLINK-3780           
1 52278U 22041T   23304.60668188  .00014191  00000+0  90787-3 0  9997
2 52278  53.2193  10.1838 0001494  95.7435 264.3728 15.08841064 84529
STARLINK-3686           
1 52279U 22041U   23304.48779887  .00088881  00000+0  22794-2 0  9992
2 52279  53.2291 342.4150 0006794  34.0091 326.1348 15.38604972 84915
STARLINK-3764           
1 52280U 22041V   23304.59564058  .00009352  00000+0  60494-3 0  9994
2 52280  53.2180  10.2312 0001671  97.4079 262.7103 15.08838992 84521
STARLINK-3779           
1 52281U 22041W   23304.41259800  .00015172  00000+0  96938-3 0  9991
2 52281  53.2173  11.0540 0001663  85.9989 274.1193 15.08836695 84499
STARLINK-3783           
1 52282U 22041X   23304.58920329  .00015702  00000+0  10024-2 0  9991
2 52282  53.2183   0.2643 0001550  93.9754 266.1416 15.08842767 84653
STARLINK-3789           
1 52283U 22041Y   23304.60298572 -.00005216  00000+0 -30992-3 0  9991
2 52283  53.2186  10.1991 0001386  87.3221 272.7930 15.08831321 84520
STARLINK-3561           
1 52284U 22041Z   23304.44936132  .00001232  00000+0  95503-4 0  9997
2 52284  53.2182   0.8918 0001575  93.1341 266.9831 15.08837265 84630
STARLINK-3775           
1 52285U 22041AA  23304.46684025  .00007589  00000+0  49448-3 0  9998
2 52285  53.2188  10.8105 0001625  99.7922 260.3254 15.08834991 84505
STARLINK-3802           
1 52286U 22041AB  23304.44200243  .00006240  00000+0  40986-3 0  9994
2 52286  53.2174   0.9248 0001484  85.8495 274.2667 15.08832753 84633
STARLINK-3822           
1 52287U 22041AC  23304.59196057  .00011939  00000+0  76689-3 0  9998
2 52287  53.2188  10.2472 0001887 106.7521 253.3679 15.08841269 84523
STARLINK-3776           
1 52288U 22041AD  23304.57079914  .00002782  00000+0  19282-3 0  9991
2 52288  53.2173   0.3442 0001494 102.6804 257.4355 15.08841655 84657
STARLINK-3751           
1 52289U 22041AE  23304.45303777 -.00000330  00000+0 -26605-5 0  9994
2 52289  53.2193   0.8766 0001461  99.5261 260.5897 15.08837805 84635
STARLINK-3772           
1 52290U 22041AF  23304.56071377  .00000192  00000+0  30161-4 0  9991
2 52290  53.2173   0.3896 0001533 101.2170 258.8994 15.08846348 84656
STARLINK-3773           
1 52291U 22041AG  23304.44567927  .00000041  00000+0  20685-4 0  9993
2 52291  53.2180   0.9064 0001417  92.8569 267.2585 15.08837054 84638
STARLINK-3753           
1 52292U 22041AH  23304.48984518  .00014155  00000+0  90567-3 0  9993
2 52292  53.2175   0.7101 0001852  88.3559 271.7645 15.08838917 84642
STARLINK-3771           
1 52293U 22041AJ  23304.43559977  .00007182  00000+0  46895-3 0  9993
2 52293  53.2173   0.9589 0001620 102.3553 257.7621 15.08833445 84635
STARLINK-3777           
1 52294U 22041AK  23304.48615855  .00001729  00000+0  12670-3 0  9992
2 52294  53.2176   0.7265 0001456 102.2745 257.8410 15.08838043 84644
STARLINK-3765           
1 52295U 22041AL  23304.43096420  .00023477  00000+0  14882-2 0  9999
2 52295  53.2176   0.9724 0001587  81.1475 278.9696 15.08841964 84632
STARLINK-3766           
1 52296U 22041AM  23304.54136210  .00005982  00000+0  39370-3 0  9995
2 52296  53.2183   0.4820 0001816  87.6316 272.4884 15.08833624 84657
STARLINK-3758           
1 52297U 22041AN  23304.55976408  .00011337  00000+0  72929-3 0  9996
2 52297  53.2167   0.3943 0001696  90.5784 269.5403 15.08839052 84658
STARLINK-3760           
1 52298U 22041AP  23304.56707309  .00005785  00000+0  38126-3 0  9991
2 52298  53.2169 359.9739 0001600 106.2956 253.8213 15.08840783 84667
STARLINK-3759           
1 52299U 22041AQ  23304.47880319  .00006251  00000+0  41058-3 0  9992
2 52299  53.2173   0.7620 0001541 102.5414 257.5751 15.08832493 84640
STARLINK-3769           
1 52300U 22041AR  23304.53032095  .00001108  00000+0  87693-4 0  9994
2 52300  53.2195   0.5321 0001548 101.5399 258.5767 15.08832809 85876
STARLINK-3768           
1 52301U 22041AS  23304.48247676 -.00000546  00000+0 -16237-4 0  9995
2 52301  53.2193   0.7438 0001511  93.5717 266.5448 15.08844540 84644
STARLINK-3564           
1 52302U 22041AT  23304.38772359 -.00001756  00000+0 -92257-4 0  9996
2 52302  53.2183 351.1691 0001737  83.3062 276.8128 15.08842245 84760
STARLINK-3742           
1 52303U 22041AU  23304.60023750  .00001414  00000+0  10694-3 0  9999
2 52303  53.2171   0.2160 0001893  91.7431 268.3778 15.08839734 85887
STARLINK-3744           
1 52304U 22041AV  23304.51651723  .00000548  00000+0  52547-4 0  9998
2 52304  53.2171 350.5936 0001619  75.3830 284.7342 15.08843768 84786
STARLINK-3724           
1 52305U 22041AW  23304.60393781  .00005890  00000+0  38794-3 0  9998
2 52305  53.2184   0.3022 0001942  81.3930 278.7283 15.08830492 84668
